0 FENGYUN 1C DEB
1 31624U 99025CAE 13282.60621649  .00003343  00000-0  12825-2 0  6700
2 31624 099.6604 199.6057 0060764 246.5525 234.8432 14.30285852332553
0 FENGYUN 1C DEB
1 31624U 99025CAE 13285.27093721  .00003269  00000-0  12543-2 0  6715
2 31624 099.6608 202.5626 0060546 238.7290 275.8873 14.30302513332933
0 FENGYUN 1C DEB
1 31624U 99025CAE 13289.25820235  .00004269  00000-0  16308-2 0  6720
2 31624 099.6622 206.9867 0060441 227.0536 287.2007 14.30332754333502
0 FENGYUN 1C DEB
1 31624U 99025CAE 13291.28668315  .00004103  00000-0  15677-2 0  6731
2 31624 099.6622 209.2373 0060391 221.1991 292.3894 14.30347367333792
0 FENGYUN 1C DEB
1 31624U 99025CAE 13294.76580683  .00004325  00000-0  16505-2 0  6746
2 31624 099.6633 213.0982 0060427 211.1054 207.6352 14.30371170334284
